OBJECT_NAME,OBJECT_ID,EPOCH,MEAN_MOTION,ECCENTRICITY,INCLINATION,RA_OF_ASC_NODE,ARG_OF_PERICENTER,MEAN_ANOMALY,EPHEMERIS_TYPE,CLASSIFICATION_TYPE,NORAD_CAT_ID,ELEMENT_SET_NO,REV_AT_EPOCH,BSTAR,MEAN_MOTION_DOT,MEAN_MOTION_DDOT
ION SCV-004,2022-002K,2026-05-11T03:47:32.540064,15.30075215,.00089557,97.2861,189.5176,120.4758,239.7368,0,U,50993,999,23963,.12010653E-3,.3424E-4,0
ETV-A1,2022-002CE,2026-05-11T15:11:09.891168,15.39907388,.00068258,97.2898,198.0617,113.8221,246.3742,0,U,51060,999,24021,.1724148E-3,.6779E-4,0
BRO-5,2022-002CF,2026-05-11T14:57:56.319264,15.45445527,.00065757,97.3013,205.0246,103.5487,256.6495,0,U,51061,999,24060,.20376693E-3,.9672E-4,0
LUDI TANCE 1-01A (L-SAR 01A),2022-007A,2026-05-11T14:37:57.825984,14.88412247,.00016162,97.8092,139.5509,90.9838,269.1564,0,U,51284,999,23303,.43655878E-4,.35E-5,0
LUDI TANCE 1-01B (L-SAR 01B),2022-018A,2026-05-11T15:26:20.878080,14.88413098,.00015831,97.8099,139.5795,92.1175,268.0223,0,U,51822,999,22827,.47851442E-4,.389E-5,0
JILIN-1 GAOFEN 03D15,2022-019R,2026-05-11T15:05:02.870880,15.90952668,.00056596,97.3659,227.0256,234.5588,125.5158,0,U,51839,999,23429,.74921462E-3,.233403E-2,.22105777E-4
JILIN-1 GAOFEN 03D12,2022-019T,2026-05-11T00:56:36.699360,15.91699801,.00057506,97.3602,226.3268,221.5384,138.5454,0,U,51841,999,23420,.78628851E-3,.254545E-2,.26168582E-4
2022-023F,2022-023F,2026-05-11T15:33:25.955712,15.17815430,.01277555,63.4485,37.6956,343.9885,15.7204,0,U,51951,999,23216,.55511139E-3,.13755E-3,0
MERIDIAN 10,2022-030A,2026-05-09T02:10:29.497152,2.00616584,.67733795,62.6773,144.9880,272.8849,17.7301,0,U,52145,999,3024,0,.246E-5,0
OMNI-L1,2022-033A,2026-05-11T11:10:59.352672,14.82609821,.00062696,97.8393,211.3599,55.7101,304.4705,0,U,52157,999,22201,.15724036E-3,.1214E-4,0
ENMAP,2022-033C,2026-05-11T16:02:04.728192,14.74958438,.0001493,97.9781,214.4360,84.4345,275.7034,0,U,52159,999,22127,.13070617E-3,.828E-5,0
ARCSAT-1,2022-033E,2026-05-11T12:43:28.608672,15.52703264,.00039857,97.2735,223.2876,350.3228,9.7948,0,U,52161,999,23001,.14163088E-3,.8641E-4,0
GLOBAL-18,2022-034B,2026-05-11T06:20:46.950720,15.44732527,.00055869,52.9815,72.8806,123.1160,237.0382,0,U,52196,999,23125,.28319723E-3,.13045E-3,0
GAOFEN-3 03,2022-035A,2026-05-11T14:21:18.612576,14.42219088,.00010515,98.4080,140.7086,70.3557,289.7746,0,U,52200,999,21557,.42874584E-4,.98E-6,0
DAQI-1,2022-039A,2026-05-11T15:02:54.187584,14.57654685,.00043044,98.1465,71.2385,27.4715,332.6711,0,U,52257,999,21661,.26346346E-4,.75E-6,0
BRO-6,2022-047AE,2026-05-11T13:58:13.222272,15.48351947,.00051034,97.3393,222.0020,188.0781,172.0388,0,U,52422,999,22548,.40599133E-3,.21423E-3,0
JILIN-1 GAOFEN 3D27,2022-048B,2026-05-11T14:25:49.444608,15.68109195,.00054781,97.5671,242.4661,173.2753,186.8582,0,U,52444,999,22373,.58799664E-3,.65624E-3,0
JILIN-1 GAOFEN 3D28,2022-048C,2026-05-11T14:15:35.845632,15.70159966,.00042103,97.5610,242.4946,188.5625,171.5566,0,U,52445,999,22377,.61093466E-3,.74223E-3,0
VIGORIDE-3,2022-057AE,2026-05-11T09:22:28.666848,15.26887533,.00071473,97.6550,270.4137,249.7578,110.2892,0,U,52760,999,21954,.13989127E-3,.3618E-4,0
ION SCV-006,2022-057AF,2026-05-11T08:56:57.556032,15.44426617,.00164941,97.6052,278.2667,245.0567,114.8968,0,U,52761,999,22043,.14218367E-3,.6509E-4,0
SHERPA-AC1,2022-057AH,2026-05-11T09:20:28.352256,15.35736770,.00069548,97.6637,279.1087,214.8404,145.2385,0,U,52763,999,22005,.14709564E-3,.5029E-4,0
OMNI-L2,2022-057AR,2026-05-11T10:38:27.638016,14.81269626,.00083615,97.4732,196.2697,87.7796,272.4376,0,U,52771,999,21495,.11176306E-3,.824E-5,0
STEP CUBE LAB-II,2022-065D,2026-05-11T14:53:43.606176,14.63243148,.00095159,98.2176,275.6463,133.7374,226.4618,0,U,52897,999,20615,.10612354E-3,.499E-5,0
RANDEV,2022-065E,2026-05-11T15:09:09.121248,14.63628665,.00088165,98.2164,275.9924,133.5699,226.6237,0,U,52898,999,20590,.12961008E-3,.626E-5,0
SNUGLITE-II,2022-065F,2026-05-11T08:04:45.372864,14.64276715,.00084783,98.2152,276.2443,133.6888,226.5019,0,U,52899,999,20560,.12667559E-3,.62E-5,0
MIMAN,2022-065G,2026-05-11T15:12:33.782976,14.61801866,.0008589,98.2210,274.3113,134.2653,225.9254,0,U,52900,999,20510,.81051751E-4,.357E-5,0
STARLINK-4362,2022-077A,2026-05-11T10:44:40.958592,15.05661626,.00013927,97.5047,311.7655,79.6834,280.4550,0,U,53043,999,21035,-.11081894E-3,-.1658E-4,0
