ION SCV-004             
1 50993U 22002K   26131.15801551  .00003424  00000+0  12011-3 0  9991
2 50993  97.2861 189.5176 0008955 120.4758 239.7368 15.30075215239632
ETV-A1                  
1 51060U 22002CE  26131.63275337  .00006779  00000+0  17241-3 0  9993
2 51060  97.2898 198.0617 0006825 113.8221 246.3742 15.39907388240218
BRO-5                   
1 51061U 22002CF  26131.62356851  .00009672  00000+0  20377-3 0  9993
2 51061  97.3013 205.0246 0006575 103.5487 256.6495 15.45445527240609
LUDI TANCE 1-01A (L-SA*)
1 51284U 22007A   26131.60969706  .00000350  00000+0  43656-4 0  9992
2 51284  97.8092 139.5509 0001616  90.9838 269.1564 14.88412247233035
LUDI TANCE 1-01B (L-SA*)
1 51822U 22018A   26131.64329720  .00000389  00000+0  47851-4 0  9995
2 51822  97.8099 139.5795 0001583  92.1175 268.0223 14.88413098228273
JILIN-1 GAOFEN 03D15    
1 51839U 22019R   26131.62850545  .00233403  22106-4  74921-3 0  9994
2 51839  97.3659 227.0256 0005659 234.5588 125.5158 15.90952668234299
JILIN-1 GAOFEN 03D12    
1 51841U 22019T   26131.03931365  .00254545  26169-4  78629-3 0  9994
2 51841  97.3602 226.3268 0005750 221.5384 138.5454 15.91699801234209
2022-023F               
1 51951U 22023F   26131.64821708  .00013755  00000+0  55511-3 0  9999
2 51951  63.4485  37.6956 0127755 343.9885  15.7204 15.17815430232164
MERIDIAN 10             
1 52145U 22030A   26129.09061918  .00000246  00000+0  00000+0 0  9998
2 52145  62.6773 144.9880 6773379 272.8849  17.7301  2.00616584 30246
OMNI-L1                 
1 52157U 22033A   26131.46596473  .00001214  00000+0  15724-3 0  9996
2 52157  97.8393 211.3599 0006269  55.7101 304.4705 14.82609821222014
ENMAP                   
1 52159U 22033C   26131.66811028  .00000828  00000+0  13071-3 0  9999
2 52159  97.9781 214.4360 0001493  84.4345 275.7034 14.74958438221275
ARCSAT-1                
1 52161U 22033E   26131.53019223  .00008641  00000+0  14163-3 0  9999
2 52161  97.2735 223.2876 0003985 350.3228   9.7948 15.52703264230016
GLOBAL-18               
1 52196U 22034B   26131.26443230  .00013045  00000+0  28320-3 0  9991
2 52196  52.9815  72.8806 0005586 123.1160 237.0382 15.44732527231252
GAOFEN-3 03             
1 52200U 22035A   26131.59813209  .00000098  00000+0  42875-4 0  9997
2 52200  98.4080 140.7086 0001051  70.3557 289.7746 14.42219088215572
DAQI-1                  
1 52257U 22039A   26131.62701606  .00000075  00000+0  26346-4 0  9994
2 52257  98.1465  71.2385 0004304  27.4715 332.6711 14.57654685216619
BRO-6                   
1 52422U 22047AE  26131.58209748  .00021423  00000+0  40599-3 0  9997
2 52422  97.3393 222.0020 0005103 188.0781 172.0388 15.48351947225488
JILIN-1 GAOFEN 3D27     
1 52444U 22048B   26131.60126672  .00065624  00000+0  58800-3 0  9994
2 52444  97.5671 242.4661 0005478 173.2753 186.8582 15.68109195223733
JILIN-1 GAOFEN 3D28     
1 52445U 22048C   26131.59416488  .00074223  00000+0  61093-3 0  9993
2 52445  97.5610 242.4946 0004210 188.5625 171.5566 15.70159966223774
VIGORIDE-3              
1 52760U 22057AE  26131.39060957  .00003618  00000+0  13989-3 0  9998
2 52760  97.6550 270.4137 0007147 249.7578 110.2892 15.26887533219541
ION SCV-006             
1 52761U 22057AF  26131.37288838  .00006509  00000+0  14218-3 0  9995
2 52761  97.6052 278.2667 0016494 245.0567 114.8968 15.44426617220431
SHERPA-AC1              
1 52763U 22057AH  26131.38921704  .00005029  00000+0  14710-3 0  9997
2 52763  97.6637 279.1087 0006954 214.8404 145.2385 15.35736770220055
OMNI-L2                 
1 52771U 22057AR  26131.44337544  .00000824  00000+0  11176-3 0  9997
2 52771  97.4732 196.2697 0008361  87.7796 272.4376 14.81269626214955
STEP CUBE LAB-II        
1 52897U 22065D   26131.62064359  .00000499  00000+0  10612-3 0  9998
2 52897  98.2176 275.6463 0009515 133.7374 226.4618 14.63243148206156
RANDEV                  
1 52898U 22065E   26131.63135557  .00000626  00000+0  12961-3 0  9990
2 52898  98.2164 275.9924 0008816 133.5699 226.6237 14.63628665205902
SNUGLITE-II             
1 52899U 22065F   26131.33663626  .00000620  00000+0  12668-3 0  9999
2 52899  98.2152 276.2443 0008478 133.6888 226.5019 14.64276715205605
MIMAN                   
1 52900U 22065G   26131.63372434  .00000357  00000+0  81052-4 0  9990
2 52900  98.2210 274.3113 0008589 134.2653 225.9254 14.61801866205103
STARLINK-4362           
1 53043U 22077A   26131.44769628 -.00001658  00000+0 -11082-3 0  9998
2 53043  97.5047 311.7655 0001392  79.6834 280.4550 15.05661626210352
